start=new Date('2022-06-29T00:00:00.000Z').valueOf();
sats=[{"ARG_OF_PERICENTER":"61.1834","FILE":"3504942","OBJECT_ID":"2021-027BJ","CENTER_NAME":"EARTH","CLASSIFICATION_TYPE":"U","MEAN_MOTION_DDOT":"0.0000000000000","TIME_SYSTEM":"UTC","ELEMENT_SET_NO":"999","MEAN_MOTION_DOT":"-0.00001181","SITE":"AFETR","RA_OF_ASC_NODE":"111.2795","PERIAPSIS":"546.111","REF_FRAME":"TEME","EPHEMERIS_TYPE":"0","MEAN_ELEMENT_THEORY":"SGP4","MEAN_MOTION":"15.06383023","EPOCH":"2022-06-28T20:25:15.145536","ECCENTRICITY":"0.00016670","INCLINATION":"53.0536","RCS_SIZE":"MEDIUM","OBJECT_NAME":"STARLINK-2491","MEAN_ANOMALY":"298.9322","LAUNCH_DATE":"2021-04-07","OBJECT_TYPE":"PAYLOAD","TLE_LINE1":"1 48148U 21027BJ  22179.85086974 -.00001181  00000-0 -60406-4 0  9998","GP_ID":"207058864","TLE_LINE2":"2 48148  53.0536 111.2795 0001667  61.1834 298.9322 15.06383023 68952","SEMIMAJOR_AXIS":"6925.401","PERIOD":"95.593","NORAD_CAT_ID":"48148","BSTAR":"-0.00006040600000","COUNTRY_CODE":"US","DECAY_DATE":null,"REV_AT_EPOCH":"6895","APOAPSIS":"548.420"},{"ECCENTRICITY":"0.00016510","EPOCH":"2022-06-28T19:08:16.984320","REF_FRAME":"TEME","PERIAPSIS":"546.111","MEAN_ELEMENT_THEORY":"SGP4","MEAN_MOTION":"15.06386773","EPHEMERIS_TYPE":"0","ELEMENT_SET_NO":"999","TIME_SYSTEM":"UTC","MEAN_MOTION_DOT":"-0.00001264","RA_OF_ASC_NODE":"91.5202","SITE":"AFETR","ARG_OF_PERICENTER":"67.2697","CENTER_NAME":"EARTH","CLASSIFICATION_TYPE":"U","MEAN_MOTION_DDOT":"0.0000000000000","FILE":"3504942","OBJECT_ID":"2021-027BK","REV_AT_EPOCH":"6923","APOAPSIS":"548.397","PERIOD":"95.593","COUNTRY_CODE":"US","DECAY_DATE":null,"NORAD_CAT_ID":"48149","BSTAR":"-0.00006597800000","MEAN_ANOMALY":"292.8467","RCS_SIZE":"MEDIUM","OBJECT_NAME":"STARLINK-2492","GP_ID":"207058611","TLE_LINE2":"2 48149  53.0567  91.5202 0001651  67.2697 292.8467 15.06386773 69237","SEMIMAJOR_AXIS":"6925.389","LAUNCH_DATE":"2021-04-07","OBJECT_TYPE":"PAYLOAD","TLE_LINE1":"1 48149U 21027BK  22179.79741880 -.00001264  00000-0 -65978-4 0  9997","INCLINATION":"53.0567"},{"EPOCH":"2022-06-28T17:38:03.391872","ECCENTRICITY":"0.00013560","EPHEMERIS_TYPE":"0","MEAN_MOTION":"15.06381019","MEAN_ELEMENT_THEORY":"SGP4","PERIAPSIS":"546.333","REF_FRAME":"TEME","MEAN_MOTION_DOT":"-0.00001374","RA_OF_ASC_NODE":"91.8080","SITE":"AFETR","TIME_SYSTEM":"UTC","ELEMENT_SET_NO":"999","FILE":"3504942","OBJECT_ID":"2021-027BL","CLASSIFICATION_TYPE":"U","CENTER_NAME":"EARTH","MEAN_MOTION_DDOT":"0.0000000000000","ARG_OF_PERICENTER":"79.5970","REV_AT_EPOCH":"6923","APOAPSIS":"548.211","NORAD_CAT_ID":"48150","BSTAR":"-0.00007341800000","COUNTRY_CODE":"US","DECAY_DATE":null,"PERIOD":"95.593","LAUNCH_DATE":"2021-04-07","TLE_LINE1":"1 48150U 21027BL  22179.73476148 -.00001374  00000-0 -73418-4 0  9995","OBJECT_TYPE":"PAYLOAD","GP_ID":"207059364","SEMIMAJOR_AXIS":"6925.407","TLE_LINE2":"2 48150  53.0541  91.8080 0001356  79.5970 280.5171 15.06381019 69234","RCS_SIZE":"LARGE","OBJECT_NAME":"STARLINK-2493","MEAN_ANOMALY":"280.5171","INCLINATION":"53.0541"},{"EPOCH":"2022-06-28T17:43:20.730432","ECCENTRICITY":"0.00015820","EPHEMERIS_TYPE":"0","MEAN_ELEMENT_THEORY":"SGP4","MEAN_MOTION":"15.06391802","PERIAPSIS":"546.143","REF_FRAME":"TEME","MEAN_MOTION_DOT":"0.00000909","SITE":"AFETR","RA_OF_ASC_NODE":"91.7884","TIME_SYSTEM":"UTC","ELEMENT_SET_NO":"999","FILE":"3504942","OBJECT_ID":"2021-027BM","CLASSIFICATION_TYPE":"U","CENTER_NAME":"EARTH","MEAN_MOTION_DDOT":"0.0000000000000","ARG_OF_PERICENTER":"60.0773","REV_AT_EPOCH":"6923","APOAPSIS":"548.334","NORAD_CAT_ID":"48151","BSTAR":"0.00007993200000","COUNTRY_CODE":"US","DECAY_DATE":null,"PERIOD":"95.593","LAUNCH_DATE":"2021-04-07","OBJECT_TYPE":"PAYLOAD","TLE_LINE1":"1 48151U 21027BM  22179.73843438  .00000909  00000-0  79932-4 0  9994","GP_ID":"207060108","TLE_LINE2":"2 48151  53.0549  91.7884 0001582  60.0773 300.0373 15.06391802 69234","SEMIMAJOR_AXIS":"6925.374","RCS_SIZE":"LARGE","OBJECT_NAME":"STARLINK-2503","MEAN_ANOMALY":"300.0373","INCLINATION":"53.0549"},{"TIME_SYSTEM":"UTC","ELEMENT_SET_NO":"999","MEAN_MOTION_DOT":"0.00000861","RA_OF_ASC_NODE":"346.3097","SITE":"AFETR","ARG_OF_PERICENTER":"69.8302","FILE":"3504942","OBJECT_ID":"2021-036A","CENTER_NAME":"EARTH","CLASSIFICATION_TYPE":"U","MEAN_MOTION_DDOT":"0.0000000000000","EPOCH":"2022-06-28T20:17:56.611104","ECCENTRICITY":"0.00014320","REF_FRAME":"TEME","PERIAPSIS":"546.255","EPHEMERIS_TYPE":"0","MEAN_ELEMENT_THEORY":"SGP4","MEAN_MOTION":"15.06389140","RCS_SIZE":"LARGE","OBJECT_NAME":"STARLINK-2567","MEAN_ANOMALY":"290.2841","LAUNCH_DATE":"2021-04-29","TLE_LINE1":"1 48276U 21036A   22179.84579411  .00000861  00000-0  76708-4 0  9996","OBJECT_TYPE":"PAYLOAD","GP_ID":"207059125","SEMIMAJOR_AXIS":"6925.382","TLE_LINE2":"2 48276  53.0562 346.3097 0001432  69.8302 290.2841 15.06389140 65352","INCLINATION":"53.0562","REV_AT_EPOCH":"6535","APOAPSIS":"548.239","PERIOD":"95.593","NORAD_CAT_ID":"48276","BSTAR":"0.00007670800000","COUNTRY_CODE":"US","DECAY_DATE":null},{"GP_ID":"207059878","SEMIMAJOR_AXIS":"6925.334","TLE_LINE2":"2 48277  53.0572 312.2002 0001585 104.1605 255.9561 15.06404753 65816","LAUNCH_DATE":"2021-04-29","OBJECT_TYPE":"PAYLOAD","TLE_LINE1":"1 48277U 21036B   22179.64812621 -.00001111  00000-0 -55692-4 0  9998","MEAN_ANOMALY":"255.9561","RCS_SIZE":"LARGE","OBJECT_NAME":"STARLINK-2569","INCLINATION":"53.0572","REV_AT_EPOCH":"6581","APOAPSIS":"548.297","COUNTRY_CODE":"US","DECAY_DATE":null,"NORAD_CAT_ID":"48277","BSTAR":"-0.00005569200000","PERIOD":"95.592","MEAN_MOTION_DOT":"-0.00001111","SITE":"AFETR","RA_OF_ASC_NODE":"312.2002","ELEMENT_SET_NO":"999","TIME_SYSTEM":"UTC","CLASSIFICATION_TYPE":"U","CENTER_NAME":"EARTH","MEAN_MOTION_DDOT":"0.0000000000000","FILE":"3504942","OBJECT_ID":"2021-036B","ARG_OF_PERICENTER":"104.1605","ECCENTRICITY":"0.00015850","EPOCH":"2022-06-28T15:33:18.104544","MEAN_MOTION":"15.06404753","MEAN_ELEMENT_THEORY":"SGP4","EPHEMERIS_TYPE":"0","PERIAPSIS":"546.101","REF_FRAME":"TEME"},{"BSTAR":"-0.00000282620000","NORAD_CAT_ID":"48278","DECAY_DATE":null,"COUNTRY_CODE":"US","PERIOD":"95.592","APOAPSIS":"548.279","REV_AT_EPOCH":"6560","INCLINATION":"53.0546","TLE_LINE1":"1 48278U 21036C   22179.68546148 -.00000324  00000-0 -28262-5 0  9990","OBJECT_TYPE":"PAYLOAD","LAUNCH_DATE":"2021-04-29","TLE_LINE2":"2 48278  53.0546 327.0929 0001525  58.1942 301.9196 15.06396995 65607","SEMIMAJOR_AXIS":"6925.358","GP_ID":"207059621","OBJECT_NAME":"STARLINK-2543","RCS_SIZE":"LARGE","MEAN_ANOMALY":"301.9196","EPHEMERIS_TYPE":"0","MEAN_ELEMENT_THEORY":"SGP4","MEAN_MOTION":"15.06396995","REF_FRAME":"TEME","PERIAPSIS":"546.167","EPOCH":"2022-06-28T16:27:03.871872","ECCENTRICITY":"0.00015250","OBJECT_ID":"2021-036C","FILE":"3504942","MEAN_MOTION_DDOT":"0.0000000000000","CLASSIFICATION_TYPE":"U","CENTER_NAME":"EARTH","ARG_OF_PERICENTER":"58.1942","SITE":"AFETR","RA_OF_ASC_NODE":"327.0929","MEAN_MOTION_DOT":"-0.00000324","TIME_SYSTEM":"UTC","ELEMENT_SET_NO":"999"},{"EPHEMERIS_TYPE":"0","MEAN_ELEMENT_THEORY":"SGP4","MEAN_MOTION":"15.06393208","REF_FRAME":"TEME","PERIAPSIS":"546.172","EPOCH":"2022-06-28T16:16:26.124096","ECCENTRICITY":"0.00015340","FILE":"3504942","OBJECT_ID":"2021-036D","CENTER_NAME":"EARTH","CLASSIFICATION_TYPE":"U","MEAN_MOTION_DDOT":"0.0000000000000","ARG_OF_PERICENTER":"62.8895","MEAN_MOTION_DOT":"0.00000216","SITE":"AFETR","RA_OF_ASC_NODE":"327.0705","TIME_SYSTEM":"UTC","ELEMENT_SET_NO":"999","NORAD_CAT_ID":"48279","BSTAR":"0.00003339100000","COUNTRY_CODE":"US","DECAY_DATE":null,"PERIOD":"95.593","REV_AT_EPOCH":"6560","APOAPSIS":"548.297","INCLINATION":"53.0564","LAUNCH_DATE":"2021-04-29","OBJECT_TYPE":"PAYLOAD","TLE_LINE1":"1 48279U 21036D   22179.67808014  .00000216  00000-0  33391-4 0  9999","GP_ID":"207058878","TLE_LINE2":"2 48279  53.0564 327.0705 0001534  62.8895 297.2250 15.06393208 65601","SEMIMAJOR_AXIS":"6925.369","RCS_SIZE":"LARGE","OBJECT_NAME":"STARLINK-2580","MEAN_ANOMALY":"297.2250"},{"APOAPSIS":"548.234","REV_AT_EPOCH":"6465","PERIOD":"95.593","DECAY_DATE":null,"COUNTRY_CODE":"US","BSTAR":"-0.00006969800000","NORAD_CAT_ID":"48280","MEAN_ANOMALY":"285.9697","OBJECT_NAME":"STARLINK-2565","RCS_SIZE":"LARGE","TLE_LINE2":"2 48280  53.0570  36.1915 0001437  74.1450 285.9697 15.06391739 64656","SEMIMAJOR_AXIS":"6925.374","GP_ID":"207058625","OBJECT_TYPE":"PAYLOAD","TLE_LINE1":"1 48280U 21036E   22179.87067619 -.00001319  00000-0 -69698-4 0  9997","LAUNCH_DATE":"2021-04-29","INCLINATION":"53.0570","ECCENTRICITY":"0.00014370","EPOCH":"2022-06-28T20:53:46.422816","PERIAPSIS":"546.244","REF_FRAME":"TEME","MEAN_MOTION":"15.06391739","MEAN_ELEMENT_THEORY":"SGP4","EPHEMERIS_TYPE":"0","ELEMENT_SET_NO":"999","TIME_SYSTEM":"UTC","RA_OF_ASC_NODE":"36.1915","SITE":"AFETR","MEAN_MOTION_DOT":"-0.00001319","ARG_OF_PERICENTER":"74.1450","MEAN_MOTION_DDOT":"0.0000000000000","CLASSIFICATION_TYPE":"U","CENTER_NAME":"EARTH","OBJECT_ID":"2021-036E","FILE":"3504942"},{"PERIOD":"95.593","DECAY_DATE":null,"COUNTRY_CODE":"US","BSTAR":"-0.00004516200000","NORAD_CAT_ID":"48281","APOAPSIS":"548.187","REV_AT_EPOCH":"6492","INCLINATION":"53.0547","MEAN_ANOMALY":"280.6116","OBJECT_NAME":"STARLINK-2520","RCS_SIZE":"LARGE","TLE_LINE2":"2 48281  53.0547  16.4359 0001363  79.5027 280.6116 15.06390258 64924","SEMIMAJOR_AXIS":"6925.378","GP_ID":"207059378","TLE_LINE1":"1 48281U 21036F   22179.81723056 -.00000954  00000-0 -45162-4 0  9990","OBJECT_TYPE":"PAYLOAD","LAUNCH_DATE":"2021-04-29","REF_FRAME":"TEME","PERIAPSIS":"546.299","MEAN_ELEMENT_THEORY":"SGP4","MEAN_MOTION":"15.06390258","EPHEMERIS_TYPE":"0","ECCENTRICITY":"0.00013630","EPOCH":"2022-06-28T19:36:48.720384","ARG_OF_PERICENTER":"79.5027","MEAN_MOTION_DDOT":"0.0000000000000","CENTER_NAME":"EARTH","CLASSIFICATION_TYPE":"U","OBJECT_ID":"2021-036F","FILE":"3504942","ELEMENT_SET_NO":"999","TIME_SYSTEM":"UTC","RA_OF_ASC_NODE":"16.4359","SITE":"AFETR","MEAN_MOTION_DOT":"-0.00000954"}];
